{
  "type": "FeatureCollection",
  "features": [
    {
      "type": "Feature",
      "properties": {
        "norad_id": 34765,
        "name": "IRIDIUM 33 DEB",
        "group": "iridium-33-debris",
        "lat": 24.01618978398496,
        "lon": -152.92007393869443,
        "alt_km": 745.6092104346953,
        "timestamp": "2025-12-22T04:03:39.554008+00:00",
        "meta_object_name": "IRIDIUM 33 DEB",
        "meta_object_id": "1997-051LJ",
        "meta_epoch": "2025-12-21T13:03:17.424288",
        "meta_mean_motion": 14.40485449,
        "meta_eccentricity": 0.0016466,
        "meta_inclination": 86.3382,
        "meta_ra_of_asc_node": 28.9833,
        "meta_arg_of_pericenter": 181.3076,
        "meta_mean_anomaly": 334.2319,
        "meta_ephemeris_type": 0,
        "meta_classification_type": "U",
        "meta_norad_cat_id": 34765,
        "meta_element_set_no": 999,
        "meta_rev_at_epoch": 87740,
        "meta_bstar": 0.00029938,
        "meta_mean_motion_dot": 9.73e-06,
        "meta_mean_motion_ddot": 0,
        "tle_line1": "1 34765U 97051LJ  25355.54395167  .00000973  00000+0  29938-3 0  9999",
        "tle_line2": "2 34765  86.3382  28.9833 0016466 181.3076 334.2319 14.40485449877403"
      },
      "geometry": {
        "type": "Point",
        "coordinates": [
          -152.92007393869443,
          24.01618978398496
        ]
      }
    },
    {
      "type": "Feature",
      "properties": {
        "norad_id": 34833,
        "name": "IRIDIUM 33 DEB",
        "group": "iridium-33-debris",
        "lat": -54.40973253544341,
        "lon": 41.87337179738611,
        "alt_km": 733.3281968261899,
        "timestamp": "2025-12-22T04:03:39.554018+00:00",
        "meta_object_name": "IRIDIUM 33 DEB",
        "meta_object_id": "1997-051MH",
        "meta_epoch": "2025-12-21T03:45:30.832704",
        "meta_mean_motion": 14.52421073,
        "meta_eccentricity": 0.00214678,
        "meta_inclination": 86.3927,
        "meta_ra_of_asc_node": 47.3667,
        "meta_arg_of_pericenter": 72.8031,
        "meta_mean_anomaly": 341.7014,
        "meta_ephemeris_type": 0,
        "meta_classification_type": "U",
        "meta_norad_cat_id": 34833,
        "meta_element_set_no": 999,
        "meta_rev_at_epoch": 87837,
        "meta_bstar": 0.00044712979,
        "meta_mean_motion_dot": 1.848e-05,
        "meta_mean_motion_ddot": 0,
        "tle_line1": "1 34833U 97051MH  25355.15660686  .00001848  00000+0  44713-3 0  9993",
        "tle_line2": "2 34833  86.3927  47.3667 0021467  72.8031 341.7014 14.52421073878374"
      },
      "geometry": {
        "type": "Point",
        "coordinates": [
          41.87337179738611,
          -54.40973253544341
        ]
      }
    },
    {
      "type": "Feature",
      "properties": {
        "norad_id": 34870,
        "name": "IRIDIUM 33 DEB",
        "group": "iridium-33-debris",
        "lat": 14.884773695872466,
        "lon": -49.25316573926725,
        "alt_km": 649.6464018076995,
        "timestamp": "2025-12-22T04:03:39.554028+00:00",
        "meta_object_name": "IRIDIUM 33 DEB",
        "meta_object_id": "1997-051MQ",
        "meta_epoch": "2025-12-21T15:32:10.277952",
        "meta_mean_motion": 14.76583966,
        "meta_eccentricity": 0.0017563,
        "meta_inclination": 86.3113,
        "meta_ra_of_asc_node": 310.0033,
        "meta_arg_of_pericenter": 150.9294,
        "meta_mean_anomaly": 331.9714,
        "meta_ephemeris_type": 0,
        "meta_classification_type": "U",
        "meta_norad_cat_id": 34870,
        "meta_element_set_no": 999,
        "meta_rev_at_epoch": 89042,
        "meta_bstar": 0.001191,
        "meta_mean_motion_dot": 8.358e-05,
        "meta_mean_motion_ddot": 0,
        "tle_line1": "1 34870U 97051MQ  25355.64734118  .00008358  00000+0  11910-2 0  9995",
        "tle_line2": "2 34870  86.3113 310.0033 0017563 150.9294 331.9714 14.76583966890424"
      },
      "geometry": {
        "type": "Point",
        "coordinates": [
          -49.25316573926725,
          14.884773695872466
        ]
      }
    },
    {
      "type": "Feature",
      "properties": {
        "norad_id": 34896,
        "name": "IRIDIUM 33 DEB",
        "group": "iridium-33-debris",
        "lat": -50.800924420706316,
        "lon": 146.96982566566788,
        "alt_km": 668.2926744511751,
        "timestamp": "2025-12-22T04:03:39.554038+00:00",
        "meta_object_name": "IRIDIUM 33 DEB",
        "meta_object_id": "1997-051MY",
        "meta_epoch": "2025-12-21T04:08:25.029888",
        "meta_mean_motion": 14.66349827,
        "meta_eccentricity": 0.00253228,
        "meta_inclination": 86.3294,
        "meta_ra_of_asc_node": 322.9021,
        "meta_arg_of_pericenter": 184.0734,
        "meta_mean_anomaly": 188.5608,
        "meta_ephemeris_type": 0,
        "meta_classification_type": "U",
        "meta_norad_cat_id": 34896,
        "meta_element_set_no": 999,
        "meta_rev_at_epoch": 87743,
        "meta_bstar": 0.00055992962,
        "meta_mean_motion_dot": 3.128e-05,
        "meta_mean_motion_ddot": 0,
        "tle_line1": "1 34896U 97051MY  25355.17251192  .00003128  00000+0  55993-3 0  9997",
        "tle_line2": "2 34896  86.3294 322.9021 0025322 184.0734 188.5608 14.66349827877439"
      },
      "geometry": {
        "type": "Point",
        "coordinates": [
          146.96982566566788,
          -50.800924420706316
        ]
      }
    },
    {
      "type": "Feature",
      "properties": {
        "norad_id": 34926,
        "name": "IRIDIUM 33 DEB",
        "group": "iridium-33-debris",
        "lat": -78.24247028376567,
        "lon": -15.069556889690576,
        "alt_km": 668.126710159102,
        "timestamp": "2025-12-22T04:03:39.554048+00:00",
        "meta_object_name": "IRIDIUM 33 DEB",
        "meta_object_id": "1997-051NF",
        "meta_epoch": "2025-12-21T19:20:10.732128",
        "meta_mean_motion": 14.5478701,
        "meta_eccentricity": 0.0074441,
        "meta_inclination": 86.132,
        "meta_ra_of_asc_node": 4.0681,
        "meta_arg_of_pericenter": 261.3659,
        "meta_mean_anomaly": 276.799,
        "meta_ephemeris_type": 0,
        "meta_classification_type": "U",
        "meta_norad_cat_id": 34926,
        "meta_element_set_no": 999,
        "meta_rev_at_epoch": 86588,
        "meta_bstar": 0.0043404,
        "meta_mean_motion_dot": 0.0001936,
        "meta_mean_motion_ddot": 0,
        "tle_line1": "1 34926U 97051NF  25355.80567977  .00019360  00000+0  43404-2 0  9990",
        "tle_line2": "2 34926  86.1320   4.0681 0074441 261.3659 276.7990 14.54787010865889"
      },
      "geometry": {
        "type": "Point",
        "coordinates": [
          -15.069556889690576,
          -78.24247028376567
        ]
      }
    },
    {
      "type": "Feature",
      "properties": {
        "norad_id": 34985,
        "name": "IRIDIUM 33 DEB",
        "group": "iridium-33-debris",
        "lat": -21.184249425285326,
        "lon": 51.447225444723244,
        "alt_km": 770.5757845596409,
        "timestamp": "2025-12-22T04:03:39.554058+00:00",
        "meta_object_name": "IRIDIUM 33 DEB",
        "meta_object_id": "1997-051NR",
        "meta_epoch": "2025-12-21T03:18:55.645056",
        "meta_mean_motion": 14.42041434,
        "meta_eccentricity": 0.00216435,
        "meta_inclination": 86.369,
        "meta_ra_of_asc_node": 53.2972,
        "meta_arg_of_pericenter": 191.5239,
        "meta_mean_anomaly": 198.031,
        "meta_ephemeris_type": 0,
        "meta_classification_type": "U",
        "meta_norad_cat_id": 34985,
        "meta_element_set_no": 999,
        "meta_rev_at_epoch": 87296,
        "meta_bstar": 0.00042163262,
        "meta_mean_motion_dot": 1.407e-05,
        "meta_mean_motion_ddot": 0,
        "tle_line1": "1 34985U 97051NR  25355.13814404  .00001407  00000+0  42163-3 0  9996",
        "tle_line2": "2 34985  86.3690  53.2972 0021643 191.5239 198.0310 14.42041434872968"
      },
      "geometry": {
        "type": "Point",
        "coordinates": [
          51.447225444723244,
          -21.184249425285326
        ]
      }
    },
    {
      "type": "Feature",
      "properties": {
        "norad_id": 35051,
        "name": "IRIDIUM 33 DEB",
        "group": "iridium-33-debris",
        "lat": 78.35767493136439,
        "lon": 166.57034707246325,
        "alt_km": 720.2510560928195,
        "timestamp": "2025-12-22T04:03:39.554068+00:00",
        "meta_object_name": "IRIDIUM 33 DEB",
        "meta_object_id": "1997-051NX",
        "meta_epoch": "2025-12-19T07:34:48.667584",
        "meta_mean_motion": 14.47625509,
        "meta_eccentricity": 0.0010483,
        "meta_inclination": 86.3238,
        "meta_ra_of_asc_node": 5.9957,
        "meta_arg_of_pericenter": 72.9006,
        "meta_mean_anomaly": 287.3345,
        "meta_ephemeris_type": 0,
        "meta_classification_type": "U",
        "meta_norad_cat_id": 35051,
        "meta_element_set_no": 999,
        "meta_rev_at_epoch": 87091,
        "meta_bstar": 0.00045048,
        "meta_mean_motion_dot": 1.68e-05,
        "meta_mean_motion_ddot": 0,
        "tle_line1": "1 35051U 97051NX  25353.31584106  .00001680  00000+0  45048-3 0  9990",
        "tle_line2": "2 35051  86.3238   5.9957 0010483  72.9006 287.3345 14.47625509870911"
      },
      "geometry": {
        "type": "Point",
        "coordinates": [
          166.57034707246325,
          78.35767493136439
        ]
      }
    }
  ]
}